[{"OBJECT_NAME":"TIANPING 2C","OBJECT_ID":"2022-032D","EPOCH":"2026-03-09T22:24:23.522112","MEAN_MOTION":15.10225163,"ECCENTRICITY":0.00079422,"INCLINATION":97.5961,"RA_OF_ASC_NODE":122.1196,"ARG_OF_PERICENTER":128.8925,"MEAN_ANOMALY":231.3013,"EPHEMERIS_TYPE":0,"CLASSIFICATION_TYPE":"U","NORAD_CAT_ID":52156,"ELEMENT_SET_NO":999,"REV_AT_EPOCH":21586,"BSTAR":0.00036090623,"MEAN_MOTION_DOT":5.841e-5,"MEAN_MOTION_DDOT":0},{"OBJECT_NAME":"STARLINK-5226","OBJECT_ID":"2022-136F","EPOCH":"2026-03-09T23:29:57.890400","MEAN_MOTION":15.08832158,"ECCENTRICITY":0.00013548,"INCLINATION":53.2192,"RA_OF_ASC_NODE":342.4065,"ARG_OF_PERICENTER":96.2146,"MEAN_ANOMALY":263.9001,"EPHEMERIS_TYPE":0,"CLASSIFICATION_TYPE":"U","NORAD_CAT_ID":54056,"ELEMENT_SET_NO":999,"REV_AT_EPOCH":18689,"BSTAR":-3.9538762e-5,"MEAN_MOTION_DOT":-9.17e-6,"MEAN_MOTION_DDOT":0}]
